NORAD_CAT_ID,OBJECT_NAME,OBJECT_TYPE,EPOCH,MEAN_MOTION,ECCENTRICITY,INCLINATION,RA_OF_ASC_NODE,ARG_OF_PERICENTER,MEAN_ANOMALY,BSTAR,MEAN_MOTION_DOT,MEAN_MOTION_DDOT,TLE_LINE0,TLE_LINE1,TLE_LINE2,SEMIMAJOR_AXIS,PERIOD,APOGEE,PERIGEE,DECAYED
53858.0,STARLINK-4798,PAYLOAD,2024-03-17 20:03:03,15.08857414,0.0001377,53.2165,284.8457,82.7752,277.3396,0.00040526,6.171e-05,0.0,0 STARLINK-4798,1 53858U 22114AS  24077.83545950  .00006171  00000-0  40526-3 0  9993,2 53858  53.2165 284.8457 0001377  82.7752 277.3396 15.08857414 83595,6917.827,95.436,540.645,538.74,0.0
53858.0,STARLINK-4798,PAYLOAD,2024-03-18 13:32:18,15.0884437,0.0001257,53.2157,281.5728,96.6884,263.4251,1.158e-05,-1.04e-06,0.0,0 STARLINK-4798,1 53858U 22114AS  24078.56410289 -.00000104  00000-0  11580-4 0  9990,2 53858  53.2157 281.5728 0001257  96.6884 263.4251 15.08844370 83704,6917.867,95.437,540.602,538.862,0.0
53858.0,STARLINK-4798,PAYLOAD,2024-03-19 19:44:38,15.08848956,0.0001374,53.2162,275.9234,101.8841,258.2305,0.00023865,3.513e-05,0.0,0 STARLINK-4798,1 53858U 22114AS  24079.82266317  .00003513  00000-0  23865-3 0  9995,2 53858  53.2162 275.9234 0001374 101.8841 258.2305 15.08848956 83897,6917.853,95.437,540.669,538.768,0.0
53858.0,STARLINK-4798,PAYLOAD,2024-03-20 13:13:53,15.08831399,0.0001116,53.2164,272.6539,85.07,275.042,0.0001427,1.983e-05,0.0,0 STARLINK-4798,1 53858U 22114AS  24080.55131439  .00001983  00000-0  14270-3 0  9992,2 53858  53.2164 272.6539 0001116  85.0700 275.0420 15.08831399 84543,6917.907,95.438,540.544,539.0,0.0
53858.0,STARLINK-4798,PAYLOAD,2024-03-20 19:35:26,15.08837117,0.0001191,53.2161,271.4639,89.0584,271.0545,0.00023556,3.463e-05,0.0,0 STARLINK-4798,1 53858U 22114AS  24080.81627330  .00003463  00000-0  23556-3 0  9993,2 53858  53.2161 271.4639 0001191  89.0584 271.0545 15.08837117 84048,6917.889,95.438,540.578,538.93,0.0
53858.0,STARLINK-4798,PAYLOAD,2024-03-21 11:29:17,15.08841583,0.0001174,53.216,268.4902,85.7872,274.3254,0.00046097,7.056e-05,0.0,0 STARLINK-4798,1 53858U 22114AS  24081.47867577  .00007056  00000-0  46097-3 0  9992,2 53858  53.2160 268.4902 0001174  85.7872 274.3254 15.08841583 84685,6917.876,95.437,540.553,538.928,0.0
53858.0,STARLINK-4798,PAYLOAD,2024-03-21 19:26:13,15.0885421,0.0001186,53.216,267.0041,83.6391,276.4736,0.00081879,0.00012772,0.0,0 STARLINK-4798,1 53858U 22114AS  24081.80987335  .00012772  00000-0  81879-3 0  9992,2 53858  53.2160 267.0041 0001186  83.6391 276.4736 15.08854210 84735,6917.837,95.437,540.522,538.881,0.0
53858.0,STARLINK-4798,PAYLOAD,2024-03-22 12:55:27,15.08840989,0.0001294,53.2159,263.7335,82.5911,277.5228,0.00028579,4.263e-05,0.0,0 STARLINK-4798,1 53858U 22114AS  24082.53851793  .00004263  00000-0  28579-3 0  9995,2 53858  53.2159 263.7335 0001294  82.5911 277.5228 15.08840989 84307,6917.877,95.437,540.638,538.847,0.0
53858.0,STARLINK-4798,PAYLOAD,2024-03-22 20:52:23,15.08844638,0.0001304,53.2159,262.2469,84.0577,276.0564,0.00048285,7.406e-05,0.0,0 STARLINK-4798,1 53858U 22114AS  24082.86971780  .00007406  00000-0  48285-3 0  9998,2 53858  53.2159 262.2469 0001304  84.0577 276.0564 15.08844638 84892,6917.866,95.437,540.633,538.829,0.0
53858.0,STARLINK-4798,PAYLOAD,2024-03-23 20:43:10,15.08851049,0.0001401,53.2155,257.784,100.1411,259.9739,0.0007144,0.00011103,0.0,0 STARLINK-4798,1 53858U 22114AS  24083.86331691  .00011103  00000-0  71440-3 0  9998,2 53858  53.2155 257.7840 0001401 100.1411 259.9739 15.08851049 84501,6917.847,95.437,540.681,538.742,0.0
53858.0,STARLINK-4798,PAYLOAD,2024-03-24 04:40:06,15.08843742,0.0001618,53.2146,256.2953,78.2618,281.8555,0.00027721,4.127e-05,0.0,0 STARLINK-4798,1 53858U 22114AS  24084.19452014  .00004127  00000-0  27721-3 0  9999,2 53858  53.2146 256.2953 0001618  78.2618 281.8555 15.08843742 84550,6917.869,95.437,540.853,538.615,0.0
53858.0,STARLINK-4798,PAYLOAD,2024-03-24 11:01:38,15.08843963,0.0001517,53.2165,255.1077,81.7203,278.3961,0.00024134,3.555e-05,0.0,0 STARLINK-4798,1 53858U 22114AS  24084.45947913  .00003555  00000-0  24134-3 0  9994,2 53858  53.2165 255.1077 0001517  81.7203 278.3961 15.08843963 85135,6917.868,95.437,540.783,538.684,0.0
53858.0,STARLINK-4798,PAYLOAD,2024-03-24 18:58:34,15.08862516,0.0001279,53.2145,253.6218,73.4312,286.682,0.00059854,9.256e-05,0.0,0 STARLINK-4798,1 53858U 22114AS  24084.79067257  .00009256  00000-0  59854-3 0  9996,2 53858  53.2145 253.6218 0001279  73.4312 286.6820 15.08862516 84643,6917.812,95.436,540.561,538.792,0.0
53858.0,STARLINK-4798,PAYLOAD,2024-03-25 04:30:52,15.08854143,0.0001307,53.2167,251.8362,85.0233,275.0908,0.00041544,6.333e-05,0.0,0 STARLINK-4798,1 53858U 22114AS  24085.18811172  .00006333  00000-0  41544-3 0  9993,2 53858  53.2167 251.8362 0001307  85.0233 275.0908 15.08854143 84703,6917.837,95.437,540.606,538.798,0.0
53858.0,STARLINK-4798,PAYLOAD,2024-03-25 10:52:25,15.08835438,0.0001225,53.2153,250.6458,94.5526,265.5606,-0.00018606,-3.247e-05,0.0,0 STARLINK-4798,1 53858U 22114AS  24085.45307529 -.00003247  00000-0 -18606-3 0  9995,2 53858  53.2153 250.6458 0001225  94.5526 265.5606 15.08835438 84749,6917.894,95.438,540.607,538.912,0.0
53858.0,STARLINK-4798,PAYLOAD,2024-03-25 17:13:58,15.08847707,0.0001311,53.2144,249.4569,96.2714,263.8427,0.00019313,2.788e-05,0.0,0 STARLINK-4798,1 53858U 22114AS  24085.71803372  .00002788  00000-0  19313-3 0  9994,2 53858  53.2144 249.4569 0001311  96.2714 263.8427 15.08847707 84780,6917.857,95.437,540.629,538.815,0.0
53858.0,STARLINK-4798,PAYLOAD,2024-03-26 13:53:59,15.08831071,0.0001704,53.217,245.5895,109.354,250.7636,-1.9022e-05,-5.91e-06,0.0,0 STARLINK-4798,1 53858U 22114AS  24086.57916346 -.00000591  00000-0 -19022-4 0  9995,2 53858  53.2170 245.5895 0001704 109.3540 250.7636 15.08831071 84916,6917.908,95.438,540.951,538.594,0.0
53858.0,STARLINK-4798,PAYLOAD,2024-03-26 17:04:46,15.08829827,0.0001498,53.2151,244.9974,95.3115,264.8048,-2.7842e-05,-7.31e-06,0.0,0 STARLINK-4798,1 53858U 22114AS  24086.71164607 -.00000731  00000-0 -27842-4 0  9991,2 53858  53.2151 244.9974 0001498  95.3115 264.8048 15.08829827 85479,6917.911,95.438,540.813,538.74,0.0
53858.0,STARLINK-4798,PAYLOAD,2024-03-27 13:44:46,15.08847616,0.0001543,53.2163,241.1318,96.8284,263.2884,0.00052714,8.113e-05,0.0,0 STARLINK-4798,1 53858U 22114AS  24087.57276518  .00008113  00000-0  52714-3 0  9996,2 53858  53.2163 241.1318 0001543  96.8284 263.2884 15.08847616 85069,6917.857,95.437,540.79,538.655,0.0
53858.0,STARLINK-4798,PAYLOAD,2024-03-27 15:20:10,15.08850967,0.0001469,53.2165,240.8343,99.4389,260.6769,0.00080743,0.00012589,0.0,0 STARLINK-4798,1 53858U 22114AS  24087.63900584  .00012589  00000-0  80743-3 0  9995,2 53858  53.2165 240.8343 0001469  99.4389 260.6769 15.08850967 85614,6917.847,95.437,540.728,538.696,0.0
53858.0,STARLINK-4798,PAYLOAD,2024-03-28 10:24:47,15.0885432,0.0001502,53.2162,237.2634,80.1461,279.9701,0.00028804,4.301e-05,0.0,0 STARLINK-4798,1 53858U 22114AS  24088.43388300  .00004301  00000-0  28804-3 0  9993,2 53858  53.2162 237.2634 0001502  80.1461 279.9701 15.08854320 85199,6917.837,95.437,540.741,538.663,0.0
53858.0,STARLINK-4798,PAYLOAD,2024-03-28 19:57:06,15.08851231,0.0001457,53.2168,235.48,91.296,268.8199,0.00024661,3.64e-05,0.0,0 STARLINK-4798,1 53858U 22114AS  24088.83132082  .00003640  00000-0  24661-3 0  9993,2 53858  53.2168 235.4800 0001457  91.2960 268.8199 15.08851231 85798,6917.846,95.437,540.719,538.703,0.0
53858.0,STARLINK-4798,PAYLOAD,2024-03-29 10:15:34,15.08842011,0.0001804,53.2167,232.8053,97.7122,262.4075,-7.1269e-05,-1.422e-05,0.0,0 STARLINK-4798,1 53858U 22114AS  24089.42748209 -.00001422  00000-0 -71269-4 0  9998,2 53858  53.2167 232.8053 0001804  97.7122 262.4075 15.08842011 85345,6917.874,95.437,540.987,538.491,0.0
53858.0,STARLINK-4798,PAYLOAD,2024-03-30 13:17:07,15.08838927,0.0002026,53.2182,227.7511,95.6545,264.4678,6.9769e-06,-1.77e-06,0.0,0 STARLINK-4798,1 53858U 22114AS  24090.55356471 -.00000177  00000-0  69769-5 0  9998,2 53858  53.2182 227.7511 0002026  95.6545 264.4678 15.08838927 85518,6917.884,95.438,541.15,538.347,0.0
53858.0,STARLINK-4798,PAYLOAD,2024-03-30 18:03:17,15.08840048,0.0001986,53.2188,226.8591,96.4485,263.6733,4.7183e-05,4.63e-06,0.0,0 STARLINK-4798,1 53858U 22114AS  24090.75228741  .00000463  00000-0  47183-4 0  9990,2 53858  53.2188 226.8591 0001986  96.4485 263.6733 15.08840048 86081,6917.88,95.438,541.119,538.371,0.0
53858.0,STARLINK-4798,PAYLOAD,2024-03-31 13:07:54,15.08865377,0.000153,53.2171,223.2892,74.5456,285.5705,-0.00021312,-3.681e-05,0.0,0 STARLINK-4798,1 53858U 22114AS  24091.54715772 -.00003681  00000-0 -21312-3 0  9995,2 53858  53.2171 223.2892 0001530  74.5456 285.5705 15.08865377 85665,6917.803,95.436,540.726,538.609,0.0
53858.0,STARLINK-4798,PAYLOAD,2024-03-31 14:43:18,15.08842098,0.0001774,53.2172,222.993,86.1644,273.9551,0.00012555,1.711e-05,0.0,0 STARLINK-4798,1 53858U 22114AS  24091.61340462  .00001711  00000-0  12555-3 0  9992,2 53858  53.2172 222.9930 0001774  86.1644 273.9551 15.08842098 86210,6917.874,95.437,540.966,538.512,0.0
53858.0,STARLINK-4798,PAYLOAD,2024-03-31 17:54:03,15.08852056,0.0001714,53.2174,222.3982,82.9474,277.1713,0.00019883,2.879e-05,0.0,0 STARLINK-4798,1 53858U 22114AS  24091.74587597  .00002879  00000-0  19883-3 0  9995,2 53858  53.2174 222.3982 0001714  82.9474 277.1713 15.08852056 86235,6917.844,95.437,540.894,538.523,0.0
53858.0,STARLINK-4798,PAYLOAD,2024-04-01 01:51:00,15.08837706,0.0001694,53.2174,220.9112,87.5537,272.5649,7.5831e-05,9.19e-06,0.0,0 STARLINK-4798,1 53858U 22114AS  24092.07708815  .00000919  00000-0  75831-4 0  9999,2 53858  53.2174 220.9112 0001694  87.5537 272.5649 15.08837706 85749,6917.887,95.438,540.924,538.581,0.0
53858.0,STARLINK-4798,PAYLOAD,2024-04-01 12:58:43,15.08830685,0.0001819,53.2165,218.829,90.3569,269.7631,2.4794e-05,1.06e-06,0.0,0 STARLINK-4798,1 53858U 22114AS  24092.54077557  .00000106  00000-0  24794-4 0  9993,2 53858  53.2165 218.8290 0001819  90.3569 269.7631 15.08830685 85814,6917.909,95.438,541.032,538.515,0.0
